{
    "type": "FeatureCollection",
    "features": [
        {
            "type": "Feature",
            "geometry": {
                "type": "Polygon",
                "coordinates": [
                    [
                        [
                            32.942394,
                            60.454154
                        ],
                        [
                            32.942,
                            60.454326
                        ],
                        [
                            32.941448,
                            60.454603
                        ],
                        [
                            32.94081,
                            60.454951
                        ],
                        [
                            32.939473,
                            60.455805
                        ],
                        [
                            32.937029,
                            60.45735
                        ],
                        [
                            32.932963,
                            60.459701
                        ],
                        [
                            32.932419,
                            60.460215
                        ],
                        [
                            32.932063,
                            60.460708
                        ],
                        [
                            32.931777,
                            60.461214
                        ],
                        [
                            32.931678,
                            60.461635
                        ],
                        [
                            32.931832,
                            60.461858
                        ],
                        [
                            32.931902,
                            60.462196
                        ],
                        [
                            32.932037,
                            60.462844
                        ],
                        [
                            32.932059,
                            60.463659
                        ],
                        [
                            32.931769,
                            60.464628
                        ],
                        [
                            32.930965,
                            60.465762
                        ],
                        [
                            32.930183,
                            60.46662
                        ],
                        [
                            32.929178,
                            60.467776
                        ],
                        [
                            32.927916,
                            60.469114
                        ],
                        [
                            32.927861,
                            60.469197
                        ],
                        [
                            32.927268,
                            60.470039
                        ],
                        [
                            32.928349,
                            60.470222
                        ],
                        [
                            32.930529,
                            60.471263
                        ],
                        [
                            32.932382,
                            60.471673
                        ],
                        [
                            32.934878,
                            60.471859
                        ],
                        [
                            32.936202,
                            60.472195
                        ],
                        [
                            32.938092,
                            60.472866
                        ],
                        [
                            32.940324,
                            60.473295
                        ],
                        [
                            32.943349,
                            60.473481
                        ],
                        [
                            32.945883,
                            60.473723
                        ],
                        [
                            32.948038,
                            60.473947
                        ],
                        [
                            32.949286,
                            60.473984
                        ],
                        [
                            32.950121,
                            60.474643
                        ],
                        [
                            32.950845,
                            60.474823
                        ],
                        [
                            32.950807,
                            60.474876
                        ],
                        [
                            32.950454,
                            60.475367
                        ],
                        [
                            32.949208,
                            60.475276
                        ],
                        [
                            32.945447,
                            60.475101
                        ],
                        [
                            32.939974,
                            60.474362
                        ],
                        [
                            32.938561,
                            60.475261
                        ],
                        [
                            32.933617,
                            60.482163
                        ],
                        [
                            32.935589,
                            60.485237
                        ],
                        [
                            32.938206,
                            60.486259
                        ],
                        [
                            32.936699,
                            60.48735
                        ],
                        [
                            32.934869,
                            60.488679
                        ],
                        [
                            32.932129,
                            60.490435
                        ],
                        [
                            32.930789,
                            60.490157
                        ],
                        [
                            32.930266,
                            60.4902
                        ],
                        [
                            32.929706,
                            60.490193
                        ],
                        [
                            32.928586,
                            60.489923
                        ],
                        [
                            32.927771,
                            60.489644
                        ],
                        [
                            32.927164,
                            60.489669
                        ],
                        [
                            32.926353,
                            60.489277
                        ],
                        [
                            32.925772,
                            60.489099
                        ],
                        [
                            32.92434,
                            60.488859
                        ],
                        [
                            32.921317,
                            60.48876
                        ],
                        [
                            32.920652,
                            60.488588
                        ],
                        [
                            32.920102,
                            60.488356
                        ],
                        [
                            32.919329,
                            60.488281
                        ],
                        [
                            32.918027,
                            60.488258
                        ],
                        [
                            32.916771,
                            60.488166
                        ],
                        [
                            32.915839,
                            60.48823
                        ],
                        [
                            32.914465,
                            60.488122
                        ],
                        [
                            32.913139,
                            60.488131
                        ],
                        [
                            32.911522,
                            60.487974
                        ],
                        [
                            32.909515,
                            60.487852
                        ],
                        [
                            32.907658,
                            60.487643
                        ],
                        [
                            32.905563,
                            60.487299
                        ],
                        [
                            32.902891,
                            60.486506
                        ],
                        [
                            32.900791,
                            60.485846
                        ],
                        [
                            32.898198,
                            60.485248
                        ],
                        [
                            32.89642,
                            60.484763
                        ],
                        [
                            32.894602,
                            60.484437
                        ],
                        [
                            32.891218,
                            60.484055
                        ],
                        [
                            32.889054,
                            60.483732
                        ],
                        [
                            32.887357,
                            60.483394
                        ],
                        [
                            32.883988,
                            60.482806
                        ],
                        [
                            32.881124,
                            60.482377
                        ],
                        [
                            32.880907,
                            60.482351
                        ],
                        [
                            32.878209,
                            60.482237
                        ],
                        [
                            32.876681,
                            60.481841
                        ],
                        [
                            32.874598,
                            60.481634
                        ],
                        [
                            32.872419,
                            60.481362
                        ],
                        [
                            32.870611,
                            60.481374
                        ],
                        [
                            32.86871,
                            60.481147
                        ],
                        [
                            32.86691,
                            60.481125
                        ],
                        [
                            32.865274,
                            60.481144
                        ],
                        [
                            32.861186,
                            60.48133
                        ],
                        [
                            32.859176,
                            60.481381
                        ],
                        [
                            32.856784,
                            60.481484
                        ],
                        [
                            32.853741,
                            60.481946
                        ],
                        [
                            32.851952,
                            60.481955
                        ],
                        [
                            32.849879,
                            60.481861
                        ],
                        [
                            32.846773,
                            60.482322
                        ],
                        [
                            32.844388,
                            60.482831
                        ],
                        [
                            32.842482,
                            60.483405
                        ],
                        [
                            32.840907,
                            60.484186
                        ],
                        [
                            32.840026,
                            60.48485
                        ],
                        [
                            32.839641,
                            60.485467
                        ],
                        [
                            32.837939,
                            60.485721
                        ],
                        [
                            32.836722,
                            60.485879
                        ],
                        [
                            32.836202,
                            60.485806
                        ],
                        [
                            32.835517,
                            60.485804
                        ],
                        [
                            32.834748,
                            60.485986
                        ],
                        [
                            32.83311,
                            60.486537
                        ],
                        [
                            32.830968,
                            60.487202
                        ],
                        [
                            32.830045,
                            60.48757
                        ],
                        [
                            32.828452,
                            60.48856
                        ],
                        [
                            32.827479,
                            60.489242
                        ],
                        [
                            32.827329,
                            60.489359
                        ],
                        [
                            32.827017,
                            60.489495
                        ],
                        [
                            32.827359,
                            60.489716
                        ],
                        [
                            32.827487,
                            60.489872
                        ],
                        [
                            32.827542,
                            60.490016
                        ],
                        [
                            32.827628,
                            60.490126
                        ],
                        [
                            32.827744,
                            60.490219
                        ],
                        [
                            32.827975,
                            60.490352
                        ],
                        [
                            32.828249,
                            60.49048
                        ],
                        [
                            32.828278,
                            60.490658
                        ],
                        [
                            32.82783,
                            60.490886
                        ],
                        [
                            32.827441,
                            60.491099
                        ],
                        [
                            32.827152,
                            60.491426
                        ],
                        [
                            32.826921,
                            60.491953
                        ],
                        [
                            32.826704,
                            60.49245
                        ],
                        [
                            32.826634,
                            60.492582
                        ],
                        [
                            32.825924,
                            60.493923
                        ],
                        [
                            32.825534,
                            60.494712
                        ],
                        [
                            32.825217,
                            60.495516
                        ],
                        [
                            32.825,
                            60.496291
                        ],
                        [
                            32.825029,
                            60.496924
                        ],
                        [
                            32.825116,
                            60.497486
                        ],
                        [
                            32.825506,
                            60.497998
                        ],
                        [
                            32.826415,
                            60.498545
                        ],
                        [
                            32.827816,
                            60.499036
                        ],
                        [
                            32.828812,
                            60.498424
                        ],
                        [
                            32.829274,
                            60.497671
                        ],
                        [
                            32.829563,
                            60.497045
                        ],
                        [
                            32.830385,
                            60.496858
                        ],
                        [
                            32.830918,
                            60.496813
                        ],
                        [
                            32.832344,
                            60.496286
                        ],
                        [
                            32.834622,
                            60.495502
                        ],
                        [
                            32.835602,
                            60.494759
                        ],
                        [
                            32.836246,
                            60.493893
                        ],
                        [
                            32.837321,
                            60.492473
                        ],
                        [
                            32.838338,
                            60.492288
                        ],
                        [
                            32.839867,
                            60.492574
                        ],
                        [
                            32.840735,
                            60.492659
                        ],
                        [
                            32.841435,
                            60.492711
                        ],
                        [
                            32.841328,
                            60.493071
                        ],
                        [
                            32.841455,
                            60.493741
                        ],
                        [
                            32.841882,
                            60.494347
                        ],
                        [
                            32.842658,
                            60.494835
                        ],
                        [
                            32.843777,
                            60.495238
                        ],
                        [
                            32.84538,
                            60.495536
                        ],
                        [
                            32.84742,
                            60.496693
                        ],
                        [
                            32.847861,
                            60.497443
                        ],
                        [
                            32.848134,
                            60.498508
                        ],
                        [
                            32.847954,
                            60.499991
                        ],
                        [
                            32.848089,
                            60.500726
                        ],
                        [
                            32.848406,
                            60.50154
                        ],
                        [
                            32.849525,
                            60.50297
                        ],
                        [
                            32.851011,
                            60.504854
                        ],
                        [
                            32.852074,
                            60.506372
                        ],
                        [
                            32.853285,
                            60.508303
                        ],
                        [
                            32.854229,
                            60.510406
                        ],
                        [
                            32.854421,
                            60.511206
                        ],
                        [
                            32.854503,
                            60.5118
                        ],
                        [
                            32.854679,
                            60.513747
                        ],
                        [
                            32.854957,
                            60.515529
                        ],
                        [
                            32.855241,
                            60.517762
                        ],
                        [
                            32.855079,
                            60.519511
                        ],
                        [
                            32.855034,
                            60.519762
                        ],
                        [
                            32.854986,
                            60.52003
                        ],
                        [
                            32.854729,
                            60.520334
                        ],
                        [
                            32.854063,
                            60.521376
                        ],
                        [
                            32.852762,
                            60.522865
                        ],
                        [
                            32.851376,
                            60.524887
                        ],
                        [
                            32.789289,
                            60.543137
                        ],
                        [
                            32.651838,
                            60.58535
                        ],
                        [
                            31.672635,
                            60.207115
                        ],
                        [
                            31.676501,
                            60.205674
                        ],
                        [
                            31.687398,
                            60.201863
                        ],
                        [
                            31.707246,
                            60.194313
                        ],
                        [
                            31.709017,
                            60.191262
                        ],
                        [
                            31.709033,
                            60.181745
                        ],
                        [
                            31.714119,
                            60.181912
                        ],
                        [
                            31.714336,
                            60.167749
                        ],
                        [
                            31.722859,
                            60.167545
                        ],
                        [
                            31.818536,
                            60.16625
                        ],
                        [
                            31.815117,
                            60.160415
                        ],
                        [
                            31.805169,
                            60.156986
                        ],
                        [
                            31.802081,
                            60.147096
                        ],
                        [
                            31.825344,
                            60.147066
                        ],
                        [
                            31.847838,
                            60.147069
                        ],
                        [
                            31.879831,
                            60.136233
                        ],
                        [
                            31.879569,
                            60.086972
                        ],
                        [
                            31.878934,
                            60.076333
                        ],
                        [
                            31.892655,
                            60.075918
                        ],
                        [
                            31.908662,
                            60.048529
                        ],
                        [
                            31.939013,
                            60.028388
                        ],
                        [
                            31.941715,
                            60.013326
                        ],
                        [
                            31.927787,
                            60.008338
                        ],
                        [
                            31.940052,
                            59.993787
                        ],
                        [
                            31.904752,
                            59.984229
                        ],
                        [
                            31.898783,
                            59.975926
                        ],
                        [
                            31.894599,
                            59.974862
                        ],
                        [
                            31.898249,
                            59.970997
                        ],
                        [
                            31.918432,
                            59.961751
                        ],
                        [
                            31.91864,
                            59.951135
                        ],
                        [
                            31.944418,
                            59.949886
                        ],
                        [
                            31.952733,
                            59.940203
                        ],
                        [
                            31.947744,
                            59.919162
                        ],
                        [
                            31.955851,
                            59.915307
                        ],
                        [
                            31.966246,
                            59.915515
                        ],
                        [
                            31.995141,
                            59.928851
                        ],
                        [
                            32.009693,
                            59.929372
                        ],
                        [
                            32.019048,
                            59.926143
                        ],
                        [
                            32.018036,
                            59.914223
                        ],
                        [
                            32.010941,
                            59.902695
                        ],
                        [
                            32.008122,
                            59.898092
                        ],
                        [
                            32.004122,
                            59.897805
                        ],
                        [
                            31.998441,
                            59.889246
                        ],
                        [
                            32.001197,
                            59.880698
                        ],
                        [
                            31.999964,
                            59.871664
                        ],
                        [
                            32.005741,
                            59.863181
                        ],
                        [
                            31.998905,
                            59.862627
                        ],
                        [
                            32.006554,
                            59.833643
                        ],
                        [
                            32.021751,
                            59.821074
                        ],
                        [
                            32.025285,
                            59.802571
                        ],
                        [
                            32.018009,
                            59.794205
                        ],
                        [
                            32.037966,
                            59.793473
                        ],
                        [
                            32.0336,
                            59.776839
                        ],
                        [
                            32.018009,
                            59.776944
                        ],
                        [
                            32.022344,
                            59.740844
                        ],
                        [
                            32.087674,
                            59.734894
                        ],
                        [
                            32.118372,
                            59.745407
                        ],
                        [
                            32.136146,
                            59.758968
                        ],
                        [
                            32.174708,
                            59.761167
                        ],
                        [
                            32.202565,
                            59.72964
                        ],
                        [
                            32.219507,
                            59.726496
                        ],
                        [
                            32.229278,
                            59.719735
                        ],
                        [
                            32.227114,
                            59.709806
                        ],
                        [
                            32.220344,
                            59.704355
                        ],
                        [
                            32.217946,
                            59.702487
                        ],
                        [
                            32.212789,
                            59.697591
                        ],
                        [
                            32.210153,
                            59.695284
                        ],
                        [
                            32.204214,
                            59.691936
                        ],
                        [
                            32.202596,
                            59.690111
                        ],
                        [
                            32.201307,
                            59.686989
                        ],
                        [
                            32.190824,
                            59.679416
                        ],
                        [
                            32.185654,
                            59.675587
                        ],
                        [
                            32.178022,
                            59.672778
                        ],
                        [
                            32.169293,
                            59.671119
                        ],
                        [
                            32.160529,
                            59.67113
                        ],
                        [
                            32.152613,
                            59.666545
                        ],
                        [
                            32.202934,
                            59.659611
                        ],
                        [
                            32.220654,
                            59.649286
                        ],
                        [
                            32.232041,
                            59.659354
                        ],
                        [
                            32.249934,
                            59.66264
                        ],
                        [
                            32.254001,
                            59.654423
                        ],
                        [
                            32.273396,
                            59.654129
                        ],
                        [
                            32.295782,
                            59.670591
                        ],
                        [
                            32.343061,
                            59.672087
                        ],
                        [
                            32.370308,
                            59.662435
                        ],
                        [
                            32.381695,
                            59.649697
                        ],
                        [
                            32.379255,
                            59.633871
                        ],
                        [
                            32.356888,
                            59.618449
                        ],
                        [
                            32.349568,
                            59.600962
                        ],
                        [
                            32.315001,
                            59.598287
                        ],
                        [
                            32.317034,
                            59.584496
                        ],
                        [
                            32.368681,
                            59.591495
                        ],
                        [
                            32.404061,
                            59.584907
                        ],
                        [
                            32.436595,
                            59.598904
                        ],
                        [
                            32.449608,
                            59.598493
                        ],
                        [
                            32.472788,
                            59.591495
                        ],
                        [
                            32.536182,
                            59.598634
                        ],
                        [
                            32.653948,
                            59.608614
                        ],
                        [
                            32.661064,
                            59.625172
                        ],
                        [
                            32.699495,
                            59.680544
                        ],
                        [
                            32.743821,
                            59.724756
                        ],
                        [
                            32.764358,
                            59.750989
                        ],
                        [
                            32.851589,
                            59.76461
                        ],
                        [
                            32.848945,
                            59.775768
                        ],
                        [
                            32.891017,
                            59.77854
                        ],
                        [
                            32.90906,
                            59.779355
                        ],
                        [
                            32.913519,
                            59.783055
                        ],
                        [
                            32.917808,
                            59.784313
                        ],
                        [
                            32.922187,
                            59.78391
                        ],
                        [
                            32.925869,
                            59.782555
                        ],
                        [
                            32.938476,
                            59.778052
                        ],
                        [
                            32.953929,
                            59.776005
                        ],
                        [
                            32.954375,
                            59.781954
                        ],
                        [
                            32.954743,
                            59.786853
                        ],
                        [
                            32.944983,
                            59.797288
                        ],
                        [
                            32.962063,
                            59.794833
                        ],
                        [
                            32.996223,
                            59.811196
                        ],
                        [
                            32.993783,
                            59.821215
                        ],
                        [
                            33.001916,
                            59.822237
                        ],
                        [
                            33.004554,
                            59.830273
                        ],
                        [
                            32.998543,
                            59.835448
                        ],
                        [
                            32.997068,
                            59.845595
                        ],
                        [
                            33.01371,
                            59.844512
                        ],
                        [
                            33.019403,
                            59.83777
                        ],
                        [
                            33.031603,
                            59.834501
                        ],
                        [
                            33.033636,
                            59.825303
                        ],
                        [
                            33.046243,
                            59.808129
                        ],
                        [
                            33.061315,
                            59.797167
                        ],
                        [
                            33.063204,
                            59.810548
                        ],
                        [
                            33.048285,
                            59.819957
                        ],
                        [
                            33.047715,
                            59.824984
                        ],
                        [
                            33.045053,
                            59.829582
                        ],
                        [
                            33.044042,
                            59.830611
                        ],
                        [
                            33.053527,
                            59.847192
                        ],
                        [
                            33.03201,
                            59.840018
                        ],
                        [
                            33.020216,
                            59.847781
                        ],
                        [
                            33.011592,
                            59.857253
                        ],
                        [
                            33.053562,
                            59.857343
                        ],
                        [
                            33.10155,
                            59.855542
                        ],
                        [
                            33.102363,
                            59.881672
                        ],
                        [
                            33.113609,
                            59.889372
                        ],
                        [
                            33.116839,
                            59.894201
                        ],
                        [
                            33.127272,
                            59.891898
                        ],
                        [
                            33.14547,
                            59.892078
                        ],
                        [
                            33.148317,
                            59.934686
                        ],
                        [
                            33.17597,
                            59.945686
                        ],
                        [
                            33.145965,
                            59.969639
                        ],
                        [
                            33.12961,
                            59.980494
                        ],
                        [
                            33.12473,
                            59.99758
                        ],
                        [
                            33.171497,
                            59.999614
                        ],
                        [
                            33.181664,
                            60.005713
                        ],
                        [
                            33.17231,
                            60.014454
                        ],
                        [
                            33.176377,
                            60.020957
                        ],
                        [
                            33.140184,
                            60.037616
                        ],
                        [
                            33.13205,
                            60.065429
                        ],
                        [
                            33.099923,
                            60.087947
                        ],
                        [
                            33.076069,
                            60.127673
                        ],
                        [
                            33.052437,
                            60.140009
                        ],
                        [
                            33.063323,
                            60.179482
                        ],
                        [
                            33.075684,
                            60.192349
                        ],
                        [
                            33.08383,
                            60.195654
                        ],
                        [
                            33.09862,
                            60.195054
                        ],
                        [
                            33.12425,
                            60.202035
                        ],
                        [
                            33.128385,
                            60.202337
                        ],
                        [
                            33.171244,
                            60.205406
                        ],
                        [
                            33.18575,
                            60.20295
                        ],
                        [
                            33.199557,
                            60.204549
                        ],
                        [
                            33.206877,
                            60.211621
                        ],
                        [
                            33.217857,
                            60.210813
                        ],
                        [
                            33.243071,
                            60.179482
                        ],
                        [
                            33.266658,
                            60.17928
                        ],
                        [
                            33.287804,
                            60.153991
                        ],
                        [
                            33.284551,
                            60.143061
                        ],
                        [
                            33.305291,
                            60.146907
                        ],
                        [
                            33.330504,
                            60.145085
                        ],
                        [
                            33.331724,
                            60.139821
                        ],
                        [
                            33.354905,
                            60.129696
                        ],
                        [
                            33.366698,
                            60.135569
                        ],
                        [
                            33.412651,
                            60.122404
                        ],
                        [
                            33.433798,
                            60.121391
                        ],
                        [
                            33.440305,
                            60.112678
                        ],
                        [
                            33.456572,
                            60.121188
                        ],
                        [
                            33.476498,
                            60.119973
                        ],
                        [
                            33.478125,
                            60.130911
                        ],
                        [
                            33.518385,
                            60.132329
                        ],
                        [
                            33.568406,
                            60.114502
                        ],
                        [
                            33.589146,
                            60.113489
                        ],
                        [
                            33.617612,
                            60.110855
                        ],
                        [
                            33.636726,
                            60.116528
                        ],
                        [
                            33.637539,
                            60.133949
                        ],
                        [
                            33.658279,
                            60.15217
                        ],
                        [
                            33.663566,
                            60.165728
                        ],
                        [
                            33.679833,
                            60.17746
                        ],
                        [
                            33.69577,
                            60.16638
                        ],
                        [
                            33.704922,
                            60.187075
                        ],
                        [
                            33.696583,
                            60.208513
                        ],
                        [
                            33.677029,
                            60.224082
                        ],
                        [
                            33.666677,
                            60.237074
                        ],
                        [
                            33.648273,
                            60.238787
                        ],
                        [
                            33.651724,
                            60.249063
                        ],
                        [
                            33.697114,
                            60.253065
                        ],
                        [
                            33.734253,
                            60.25634
                        ],
                        [
                            33.691695,
                            60.275451
                        ],
                        [
                            33.69227,
                            60.299111
                        ],
                        [
                            33.670991,
                            60.299253
                        ],
                        [
                            33.671551,
                            60.294752
                        ],
                        [
                            33.664859,
                            60.292952
                        ],
                        [
                            33.662661,
                            60.28812
                        ],
                        [
                            33.654249,
                            60.287599
                        ],
                        [
                            33.642235,
                            60.280726
                        ],
                        [
                            33.626677,
                            60.283893
                        ],
                        [
                            33.623973,
                            60.29133
                        ],
                        [
                            33.611179,
                            60.298683
                        ],
                        [
                            33.539577,
                            60.299966
                        ],
                        [
                            33.543602,
                            60.356336
                        ],
                        [
                            33.526924,
                            60.358327
                        ],
                        [
                            33.526924,
                            60.36885
                        ],
                        [
                            33.507945,
                            60.369134
                        ],
                        [
                            33.511396,
                            60.387043
                        ],
                        [
                            33.492992,
                            60.388606
                        ],
                        [
                            33.491842,
                            60.401533
                        ],
                        [
                            33.473151,
                            60.399829
                        ],
                        [
                            33.475739,
                            60.389601
                        ],
                        [
                            33.329483,
                            60.390855
                        ],
                        [
                            33.196659,
                            60.390641
                        ],
                        [
                            33.135382,
                            60.390015
                        ],
                        [
                            33.134537,
                            60.395652
                        ],
                        [
                            33.121014,
                            60.392312
                        ],
                        [
                            33.110026,
                            60.39774
                        ],
                        [
                            33.112984,
                            60.40421
                        ],
                        [
                            33.102419,
                            60.407758
                        ],
                        [
                            33.110871,
                            60.420903
                        ],
                        [
                            33.090164,
                            60.422363
                        ],
                        [
                            33.043255,
                            60.431332
                        ],
                        [
                            33.039452,
                            60.423824
                        ],
                        [
                            33.053397,
                            60.413184
                        ],
                        [
                            33.051227,
                            60.411143
                        ],
                        [
                            33.049042,
                            60.411797
                        ],
                        [
                            33.04563,
                            60.41202
                        ],
                        [
                            33.042905,
                            60.412306
                        ],
                        [
                            33.04137,
                            60.412687
                        ],
                        [
                            33.038271,
                            60.41542
                        ],
                        [
                            33.03528,
                            60.418317
                        ],
                        [
                            33.030953,
                            60.419467
                        ],
                        [
                            33.02031,
                            60.419435
                        ],
                        [
                            33.016093,
                            60.419951
                        ],
                        [
                            33.01235,
                            60.420749
                        ],
                        [
                            33.009624,
                            60.421945
                        ],
                        [
                            33.007916,
                            60.424156
                        ],
                        [
                            33.008523,
                            60.42466
                        ],
                        [
                            33.009493,
                            60.425782
                        ],
                        [
                            33.009962,
                            60.426565
                        ],
                        [
                            33.009925,
                            60.427315
                        ],
                        [
                            33.009398,
                            60.428603
                        ],
                        [
                            33.009011,
                            60.429855
                        ],
                        [
                            33.009345,
                            60.430197
                        ],
                        [
                            33.009513,
                            60.430324
                        ],
                        [
                            33.008964,
                            60.431675
                        ],
                        [
                            33.007593,
                            60.433781
                        ],
                        [
                            33.006292,
                            60.434886
                        ],
                        [
                            33.004598,
                            60.435692
                        ],
                        [
                            33.00209,
                            60.436688
                        ],
                        [
                            33.000535,
                            60.437336
                        ],
                        [
                            32.999335,
                            60.4379
                        ],
                        [
                            32.997924,
                            60.438718
                        ],
                        [
                            32.995311,
                            60.440117
                        ],
                        [
                            32.992587,
                            60.441005
                        ],
                        [
                            32.989047,
                            60.442184
                        ],
                        [
                            32.986446,
                            60.443139
                        ],
                        [
                            32.984963,
                            60.44405
                        ],
                        [
                            32.983874,
                            60.445109
                        ],
                        [
                            32.982694,
                            60.446825
                        ],
                        [
                            32.98224,
                            60.447721
                        ],
                        [
                            32.981393,
                            60.448589
                        ],
                        [
                            32.980353,
                            60.44952
                        ],
                        [
                            32.979191,
                            60.450583
                        ],
                        [
                            32.978077,
                            60.451382
                        ],
                        [
                            32.977351,
                            60.451872
                        ],
                        [
                            32.976843,
                            60.452325
                        ],
                        [
                            32.975851,
                            60.452635
                        ],
                        [
                            32.974568,
                            60.452922
                        ],
                        [
                            32.970817,
                            60.453674
                        ],
                        [
                            32.968542,
                            60.454068
                        ],
                        [
                            32.968009,
                            60.454199
                        ],
                        [
                            32.967377,
                            60.454192
                        ],
                        [
                            32.966669,
                            60.454185
                        ],
                        [
                            32.966328,
                            60.454118
                        ],
                        [
                            32.964236,
                            60.453954
                        ],
                        [
                            32.962826,
                            60.453795
                        ],
                        [
                            32.959773,
                            60.453265
                        ],
                        [
                            32.956745,
                            60.452656
                        ],
                        [
                            32.954457,
                            60.452161
                        ],
                        [
                            32.953094,
                            60.451864
                        ],
                        [
                            32.95138,
                            60.451744
                        ],
                        [
                            32.950095,
                            60.451856
                        ],
                        [
                            32.948809,
                            60.452117
                        ],
                        [
                            32.947243,
                            60.45249
                        ],
                        [
                            32.9448,
                            60.453273
                        ],
                        [
                            32.942394,
                            60.454154
                        ]
                    ]
                ]
            },
            "properties": {
                "@id": "relation/1128773",
                "addr:country": "RU",
                "addr:region": "Ленинградская область",
                "admin_level": "6",
                "boundary": "administrative",
                "name": "Волховский район",
                "name:en": "Volkhovsky District",
                "name:fi": "Olhavan piiri",
                "official_status": "ru:муниципальный район",
                "population": "94940",
                "population:date": "2013",
                "type": "boundary",
                "website": "https://www.volkhov-raion.ru/",
                "wikidata": "Q7663",
                "wikipedia": "ru:Волховский район"
            },
            "id": "relation/1128773",
            "bbox": [
                31.672635,
                59.584496,
                33.734253,
                60.58535
            ]
        },
        {
            "type": "Feature",
            "geometry": {
                "type": "Point",
                "coordinates": [
                    32.32768,
                    59.927587
                ]
            },
            "properties": {
                "@id": "node/34392911",
                "@relations": [
                    {
                        "role": "admin_centre",
                        "rel": 1128773,
                        "reltags": {
                            "addr:country": "RU",
                            "addr:region": "Ленинградская область",
                            "admin_level": "6",
                            "boundary": "administrative",
                            "name": "Волховский район",
                            "name:en": "Volkhovsky District",
                            "name:fi": "Olhavan piiri",
                            "official_status": "ru:муниципальный район",
                            "population": "94940",
                            "population:date": "2013",
                            "type": "boundary",
                            "website": "https://www.volkhov-raion.ru/",
                            "wikidata": "Q7663",
                            "wikipedia": "ru:Волховский район"
                        }
                    }
                ]
            },
            "id": "node/34392911",
            "bbox": [
                32.32768,
                59.927587,
                32.32768,
                59.927587
            ]
        }
    ]
}