{
    "type": "FeatureCollection",
    "features": [
        {
            "type": "Feature",
            "geometry": {
                "type": "Polygon",
                "coordinates": [
                    [
                        [
                            32.9423935,
                            60.4541535
                        ],
                        [
                            32.9419995,
                            60.454326
                        ],
                        [
                            32.941448,
                            60.4546032
                        ],
                        [
                            32.9408098,
                            60.4549506
                        ],
                        [
                            32.9394732,
                            60.455805
                        ],
                        [
                            32.9370294,
                            60.4573497
                        ],
                        [
                            32.9329628,
                            60.4597009
                        ],
                        [
                            32.9324188,
                            60.4602151
                        ],
                        [
                            32.9320634,
                            60.4607076
                        ],
                        [
                            32.9317768,
                            60.4612144
                        ],
                        [
                            32.9316775,
                            60.4616346
                        ],
                        [
                            32.931832,
                            60.4618583
                        ],
                        [
                            32.9319023,
                            60.4621962
                        ],
                        [
                            32.932037,
                            60.4628438
                        ],
                        [
                            32.9320594,
                            60.4636586
                        ],
                        [
                            32.931769,
                            60.4646275
                        ],
                        [
                            32.930965,
                            60.4657616
                        ],
                        [
                            32.9301832,
                            60.4666204
                        ],
                        [
                            32.9291781,
                            60.4677764
                        ],
                        [
                            32.9279162,
                            60.469114
                        ],
                        [
                            32.9278605,
                            60.469197
                        ],
                        [
                            32.9272676,
                            60.4700386
                        ],
                        [
                            32.9283492,
                            60.4702219
                        ],
                        [
                            32.9305291,
                            60.471263
                        ],
                        [
                            32.9323821,
                            60.471673
                        ],
                        [
                            32.934878,
                            60.4718594
                        ],
                        [
                            32.9362016,
                            60.4721949
                        ],
                        [
                            32.9380924,
                            60.4728659
                        ],
                        [
                            32.9403236,
                            60.4732945
                        ],
                        [
                            32.943349,
                            60.4734809
                        ],
                        [
                            32.9458827,
                            60.4737232
                        ],
                        [
                            32.9480382,
                            60.4739468
                        ],
                        [
                            32.9492862,
                            60.4739841
                        ],
                        [
                            32.9501206,
                            60.4746433
                        ],
                        [
                            32.9508446,
                            60.4748234
                        ],
                        [
                            32.9508068,
                            60.4748761
                        ],
                        [
                            32.9504543,
                            60.4753666
                        ],
                        [
                            32.9492077,
                            60.4752758
                        ],
                        [
                            32.9454471,
                            60.4751013
                        ],
                        [
                            32.9399735,
                            60.4743617
                        ],
                        [
                            32.9385609,
                            60.4752608
                        ],
                        [
                            32.933617,
                            60.4821631
                        ],
                        [
                            32.9355887,
                            60.4852368
                        ],
                        [
                            32.9382061,
                            60.486259
                        ],
                        [
                            32.9366987,
                            60.4873498
                        ],
                        [
                            32.9348687,
                            60.4886787
                        ],
                        [
                            32.932129,
                            60.4904352
                        ],
                        [
                            32.9307891,
                            60.4901567
                        ],
                        [
                            32.9302657,
                            60.4902003
                        ],
                        [
                            32.9297056,
                            60.4901925
                        ],
                        [
                            32.9285859,
                            60.489923
                        ],
                        [
                            32.9277709,
                            60.489644
                        ],
                        [
                            32.9271638,
                            60.4896694
                        ],
                        [
                            32.9263525,
                            60.4892767
                        ],
                        [
                            32.9257722,
                            60.4890985
                        ],
                        [
                            32.9243402,
                            60.4888593
                        ],
                        [
                            32.9213172,
                            60.4887604
                        ],
                        [
                            32.9206515,
                            60.4885878
                        ],
                        [
                            32.9201023,
                            60.4883557
                        ],
                        [
                            32.9193287,
                            60.4882805
                        ],
                        [
                            32.9180267,
                            60.4882577
                        ],
                        [
                            32.9167705,
                            60.4881663
                        ],
                        [
                            32.9158385,
                            60.48823
                        ],
                        [
                            32.9144646,
                            60.4881223
                        ],
                        [
                            32.9131393,
                            60.4881314
                        ],
                        [
                            32.9115223,
                            60.4879744
                        ],
                        [
                            32.9095146,
                            60.4878523
                        ],
                        [
                            32.9076576,
                            60.4876428
                        ],
                        [
                            32.9055625,
                            60.4872991
                        ],
                        [
                            32.9028911,
                            60.486506
                        ],
                        [
                            32.9007911,
                            60.4858458
                        ],
                        [
                            32.8981979,
                            60.4852476
                        ],
                        [
                            32.8964199,
                            60.4847629
                        ],
                        [
                            32.8946016,
                            60.4844366
                        ],
                        [
                            32.8912184,
                            60.484055
                        ],
                        [
                            32.8890538,
                            60.4837316
                        ],
                        [
                            32.8873571,
                            60.4833936
                        ],
                        [
                            32.8839876,
                            60.4828061
                        ],
                        [
                            32.8811242,
                            60.4823767
                        ],
                        [
                            32.8809068,
                            60.482351
                        ],
                        [
                            32.8782095,
                            60.4822374
                        ],
                        [
                            32.8766806,
                            60.4818412
                        ],
                        [
                            32.8745984,
                            60.4816341
                        ],
                        [
                            32.8724188,
                            60.4813621
                        ],
                        [
                            32.8706111,
                            60.481374
                        ],
                        [
                            32.8687104,
                            60.4811474
                        ],
                        [
                            32.8669095,
                            60.4811245
                        ],
                        [
                            32.8652739,
                            60.4811441
                        ],
                        [
                            32.8611864,
                            60.4813297
                        ],
                        [
                            32.8591765,
                            60.4813814
                        ],
                        [
                            32.8567841,
                            60.4814839
                        ],
                        [
                            32.8537409,
                            60.4819458
                        ],
                        [
                            32.8519521,
                            60.4819551
                        ],
                        [
                            32.8498791,
                            60.4818613
                        ],
                        [
                            32.8467725,
                            60.4823219
                        ],
                        [
                            32.8443877,
                            60.4828313
                        ],
                        [
                            32.842482,
                            60.4834047
                        ],
                        [
                            32.8409073,
                            60.4841855
                        ],
                        [
                            32.8400255,
                            60.4848501
                        ],
                        [
                            32.8396408,
                            60.4854666
                        ],
                        [
                            32.8379392,
                            60.4857214
                        ],
                        [
                            32.8367222,
                            60.4858793
                        ],
                        [
                            32.8362015,
                            60.485806
                        ],
                        [
                            32.8355169,
                            60.4858035
                        ],
                        [
                            32.8347484,
                            60.4859861
                        ],
                        [
                            32.8331105,
                            60.4865367
                        ],
                        [
                            32.8309675,
                            60.4872022
                        ],
                        [
                            32.8300454,
                            60.48757
                        ],
                        [
                            32.8284517,
                            60.48856
                        ],
                        [
                            32.8274789,
                            60.4892417
                        ],
                        [
                            32.8273292,
                            60.4893589
                        ],
                        [
                            32.8270169,
                            60.4894948
                        ],
                        [
                            32.8273591,
                            60.4897155
                        ],
                        [
                            32.8274874,
                            60.489872
                        ],
                        [
                            32.8275416,
                            60.490016
                        ],
                        [
                            32.8276282,
                            60.4901263
                        ],
                        [
                            32.8277437,
                            60.4902188
                        ],
                        [
                            32.8279748,
                            60.4903521
                        ],
                        [
                            32.8282492,
                            60.4904802
                        ],
                        [
                            32.828278,
                            60.490658
                        ],
                        [
                            32.8278304,
                            60.4908856
                        ],
                        [
                            32.8274405,
                            60.491099
                        ],
                        [
                            32.8271517,
                            60.4914262
                        ],
                        [
                            32.8269206,
                            60.4919525
                        ],
                        [
                            32.826704,
                            60.4924504
                        ],
                        [
                            32.8266341,
                            60.4925823
                        ],
                        [
                            32.8259242,
                            60.4939226
                        ],
                        [
                            32.8255343,
                            60.4947121
                        ],
                        [
                            32.8252167,
                            60.4955157
                        ],
                        [
                            32.825,
                            60.4962909
                        ],
                        [
                            32.8250289,
                            60.4969238
                        ],
                        [
                            32.8251156,
                            60.4974856
                        ],
                        [
                            32.8255055,
                            60.4979976
                        ],
                        [
                            32.8264152,
                            60.4985452
                        ],
                        [
                            32.8278159,
                            60.4990359
                        ],
                        [
                            32.8288123,
                            60.4984243
                        ],
                        [
                            32.8292744,
                            60.4976705
                        ],
                        [
                            32.8295632,
                            60.4970447
                        ],
                        [
                            32.8303845,
                            60.4968583
                        ],
                        [
                            32.8309176,
                            60.4968133
                        ],
                        [
                            32.8323436,
                            60.4962864
                        ],
                        [
                            32.8346221,
                            60.495502
                        ],
                        [
                            32.8356016,
                            60.494759
                        ],
                        [
                            32.8362463,
                            60.4938928
                        ],
                        [
                            32.8373208,
                            60.4924732
                        ],
                        [
                            32.8383384,
                            60.492288
                        ],
                        [
                            32.8398665,
                            60.4925735
                        ],
                        [
                            32.8407346,
                            60.4926586
                        ],
                        [
                            32.8414345,
                            60.4927106
                        ],
                        [
                            32.8413276,
                            60.4930708
                        ],
                        [
                            32.8414548,
                            60.4937406
                        ],
                        [
                            32.8418821,
                            60.4943474
                        ],
                        [
                            32.8426575,
                            60.4948354
                        ],
                        [
                            32.8437769,
                            60.4952376
                        ],
                        [
                            32.8453804,
                            60.4955356
                        ],
                        [
                            32.8474198,
                            60.4966925
                        ],
                        [
                            32.8478611,
                            60.4974427
                        ],
                        [
                            32.8481335,
                            60.4985075
                        ],
                        [
                            32.8479537,
                            60.4999912
                        ],
                        [
                            32.848089,
                            60.5007264
                        ],
                        [
                            32.8484057,
                            60.5015396
                        ],
                        [
                            32.8495251,
                            60.5029696
                        ],
                        [
                            32.8510114,
                            60.5048537
                        ],
                        [
                            32.8520741,
                            60.5063722
                        ],
                        [
                            32.8532854,
                            60.5083028
                        ],
                        [
                            32.8542286,
                            60.5104063
                        ],
                        [
                            32.8544211,
                            60.511206
                        ],
                        [
                            32.8545027,
                            60.5118
                        ],
                        [
                            32.8546789,
                            60.5137473
                        ],
                        [
                            32.8549565,
                            60.515529
                        ],
                        [
                            32.8552413,
                            60.5177624
                        ],
                        [
                            32.8550793,
                            60.5195105
                        ],
                        [
                            32.8550341,
                            60.5197616
                        ],
                        [
                            32.8549857,
                            60.5200298
                        ],
                        [
                            32.8547287,
                            60.5203338
                        ],
                        [
                            32.8540631,
                            60.521376
                        ],
                        [
                            32.8527622,
                            60.5228647
                        ],
                        [
                            32.8513758,
                            60.5248869
                        ],
                        [
                            32.7892893,
                            60.5431368
                        ],
                        [
                            32.6289448,
                            60.543389
                        ],
                        [
                            32.6038029,
                            60.5181137
                        ],
                        [
                            32.5721021,
                            60.5105811
                        ],
                        [
                            32.5871928,
                            60.4935635
                        ],
                        [
                            32.5966139,
                            60.4685715
                        ],
                        [
                            32.6167348,
                            60.450309
                        ],
                        [
                            32.6638359,
                            60.4221059
                        ],
                        [
                            32.620684,
                            60.3485085
                        ],
                        [
                            32.5859298,
                            60.3593658
                        ],
                        [
                            32.5736269,
                            60.3508872
                        ],
                        [
                            32.5846019,
                            60.2904314
                        ],
                        [
                            32.6154958,
                            60.2260242
                        ],
                        [
                            32.5221977,
                            60.1733944
                        ],
                        [
                            32.3326008,
                            60.1370628
                        ],
                        [
                            32.2278007,
                            60.1350353
                        ],
                        [
                            32.1782952,
                            60.1782615
                        ],
                        [
                            32.1459722,
                            60.2133681
                        ],
                        [
                            32.0853486,
                            60.2653376
                        ],
                        [
                            32.0302797,
                            60.2641501
                        ],
                        [
                            31.9907738,
                            60.2273144
                        ],
                        [
                            31.9440849,
                            60.2368244
                        ],
                        [
                            31.8818331,
                            60.2249365
                        ],
                        [
                            31.8531015,
                            60.249302
                        ],
                        [
                            31.7836668,
                            60.2475197
                        ],
                        [
                            31.7386881,
                            60.2520468
                        ],
                        [
                            31.6962749,
                            60.2475197
                        ],
                        [
                            31.6726345,
                            60.2071151
                        ],
                        [
                            31.6765007,
                            60.2056736
                        ],
                        [
                            31.6873976,
                            60.2018626
                        ],
                        [
                            31.7072457,
                            60.1943129
                        ],
                        [
                            31.7090169,
                            60.1912615
                        ],
                        [
                            31.7090334,
                            60.1817452
                        ],
                        [
                            31.714119,
                            60.1819118
                        ],
                        [
                            31.7143363,
                            60.1677494
                        ],
                        [
                            31.7228591,
                            60.1675448
                        ],
                        [
                            31.8185356,
                            60.1662498
                        ],
                        [
                            31.8151167,
                            60.1604152
                        ],
                        [
                            31.8051691,
                            60.1569861
                        ],
                        [
                            31.8020805,
                            60.1470958
                        ],
                        [
                            31.8253437,
                            60.1470656
                        ],
                        [
                            31.8478378,
                            60.147069
                        ],
                        [
                            31.8798308,
                            60.1362326
                        ],
                        [
                            31.8795688,
                            60.0869715
                        ],
                        [
                            31.8789342,
                            60.0763331
                        ],
                        [
                            31.8926546,
                            60.0759183
                        ],
                        [
                            31.9086616,
                            60.0485292
                        ],
                        [
                            31.9390127,
                            60.0283879
                        ],
                        [
                            31.9417152,
                            60.0133258
                        ],
                        [
                            31.927787,
                            60.0083382
                        ],
                        [
                            31.9400521,
                            59.9937868
                        ],
                        [
                            31.9047522,
                            59.984229
                        ],
                        [
                            31.8987833,
                            59.975926
                        ],
                        [
                            31.8945993,
                            59.9748617
                        ],
                        [
                            31.8982492,
                            59.9709969
                        ],
                        [
                            31.9184322,
                            59.9617512
                        ],
                        [
                            31.9186401,
                            59.9511351
                        ],
                        [
                            31.9444177,
                            59.9498859
                        ],
                        [
                            31.9527331,
                            59.9402033
                        ],
                        [
                            31.9477438,
                            59.9191624
                        ],
                        [
                            31.9558513,
                            59.9153069
                        ],
                        [
                            31.9662455,
                            59.9155153
                        ],
                        [
                            31.9951414,
                            59.9288512
                        ],
                        [
                            32.0096933,
                            59.929372
                        ],
                        [
                            32.0190481,
                            59.9261428
                        ],
                        [
                            32.0180359,
                            59.9142234
                        ],
                        [
                            32.0109406,
                            59.9026953
                        ],
                        [
                            32.0081224,
                            59.8980919
                        ],
                        [
                            32.0041224,
                            59.8978049
                        ],
                        [
                            31.9984408,
                            59.8892456
                        ],
                        [
                            32.0011971,
                            59.8806977
                        ],
                        [
                            31.999964,
                            59.8716636
                        ],
                        [
                            32.0057413,
                            59.8631807
                        ],
                        [
                            31.9989047,
                            59.8626272
                        ],
                        [
                            32.0065536,
                            59.8336426
                        ],
                        [
                            32.0217506,
                            59.8210736
                        ],
                        [
                            32.0252846,
                            59.8025713
                        ],
                        [
                            32.0180087,
                            59.7942053
                        ],
                        [
                            32.0379655,
                            59.7934731
                        ],
                        [
                            32.0336,
                            59.7768391
                        ],
                        [
                            32.0180087,
                            59.7769438
                        ],
                        [
                            32.0223437,
                            59.7408439
                        ],
                        [
                            32.0876735,
                            59.7348942
                        ],
                        [
                            32.1183715,
                            59.7454067
                        ],
                        [
                            32.1361456,
                            59.758968
                        ],
                        [
                            32.1747081,
                            59.7611665
                        ],
                        [
                            32.2025646,
                            59.7296395
                        ],
                        [
                            32.2195071,
                            59.7264956
                        ],
                        [
                            32.2292777,
                            59.7197353
                        ],
                        [
                            32.2271139,
                            59.7098056
                        ],
                        [
                            32.220344,
                            59.7043546
                        ],
                        [
                            32.2179459,
                            59.7024868
                        ],
                        [
                            32.2127885,
                            59.6975914
                        ],
                        [
                            32.2101535,
                            59.6952835
                        ],
                        [
                            32.2042138,
                            59.6919364
                        ],
                        [
                            32.2025955,
                            59.6901106
                        ],
                        [
                            32.2013072,
                            59.6869887
                        ],
                        [
                            32.1908244,
                            59.6794164
                        ],
                        [
                            32.1856537,
                            59.6755868
                        ],
                        [
                            32.1780215,
                            59.6727781
                        ],
                        [
                            32.1692932,
                            59.6711191
                        ],
                        [
                            32.1605286,
                            59.6711304
                        ],
                        [
                            32.1526131,
                            59.6665445
                        ],
                        [
                            32.2029342,
                            59.6596114
                        ],
                        [
                            32.2206539,
                            59.6492862
                        ],
                        [
                            32.2320407,
                            59.6593535
                        ],
                        [
                            32.2499341,
                            59.6626401
                        ],
                        [
                            32.2540008,
                            59.6544229
                        ],
                        [
                            32.2733962,
                            59.6541286
                        ],
                        [
                            32.2957822,
                            59.6705908
                        ],
                        [
                            32.3430612,
                            59.6720874
                        ],
                        [
                            32.3703079,
                            59.6624347
                        ],
                        [
                            32.3816947,
                            59.6496971
                        ],
                        [
                            32.3792546,
                            59.6338712
                        ],
                        [
                            32.3568879,
                            59.6184491
                        ],
                        [
                            32.3495678,
                            59.6009622
                        ],
                        [
                            32.315001,
                            59.5982869
                        ],
                        [
                            32.3170344,
                            59.5844956
                        ],
                        [
                            32.3686813,
                            59.5914948
                        ],
                        [
                            32.4040614,
                            59.5849073
                        ],
                        [
                            32.4365949,
                            59.5989043
                        ],
                        [
                            32.4496083,
                            59.5984927
                        ],
                        [
                            32.4727884,
                            59.5914948
                        ],
                        [
                            32.5361822,
                            59.598634
                        ],
                        [
                            32.6539476,
                            59.6086141
                        ],
                        [
                            32.6610643,
                            59.6251717
                        ],
                        [
                            32.6994945,
                            59.6805443
                        ],
                        [
                            32.7438214,
                            59.7247561
                        ],
                        [
                            32.7643581,
                            59.7509888
                        ],
                        [
                            32.8515885,
                            59.7646095
                        ],
                        [
                            32.8489452,
                            59.7757681
                        ],
                        [
                            32.8910174,
                            59.7785404
                        ],
                        [
                            32.9090596,
                            59.7793547
                        ],
                        [
                            32.9135192,
                            59.7830547
                        ],
                        [
                            32.9178075,
                            59.7843134
                        ],
                        [
                            32.9221871,
                            59.78391
                        ],
                        [
                            32.9258693,
                            59.7825549
                        ],
                        [
                            32.938476,
                            59.7780519
                        ],
                        [
                            32.9539294,
                            59.7760049
                        ],
                        [
                            32.9543754,
                            59.7819536
                        ],
                        [
                            32.9547428,
                            59.7868527
                        ],
                        [
                            32.9449827,
                            59.7972879
                        ],
                        [
                            32.9620628,
                            59.7948329
                        ],
                        [
                            32.9962229,
                            59.8111964
                        ],
                        [
                            32.9937829,
                            59.821215
                        ],
                        [
                            33.0019163,
                            59.8222372
                        ],
                        [
                            33.0045543,
                            59.8302733
                        ],
                        [
                            32.998543,
                            59.8354479
                        ],
                        [
                            32.9970676,
                            59.8455954
                        ],
                        [
                            33.0137097,
                            59.8445122
                        ],
                        [
                            33.019403,
                            59.8377699
                        ],
                        [
                            33.0316031,
                            59.8345005
                        ],
                        [
                            33.0336364,
                            59.8253034
                        ],
                        [
                            33.0462432,
                            59.8081288
                        ],
                        [
                            33.0613151,
                            59.7971671
                        ],
                        [
                            33.0632042,
                            59.8105481
                        ],
                        [
                            33.0482846,
                            59.8199569
                        ],
                        [
                            33.0477148,
                            59.8249843
                        ],
                        [
                            33.045053,
                            59.8295819
                        ],
                        [
                            33.0440415,
                            59.8306114
                        ],
                        [
                            33.0535268,
                            59.8471916
                        ],
                        [
                            33.0320098,
                            59.8400175
                        ],
                        [
                            33.0202164,
                            59.8477806
                        ],
                        [
                            33.0115921,
                            59.8572532
                        ],
                        [
                            33.0535624,
                            59.8573431
                        ],
                        [
                            33.1015501,
                            59.855542
                        ],
                        [
                            33.1023634,
                            59.881672
                        ],
                        [
                            33.113609,
                            59.8893721
                        ],
                        [
                            33.1168388,
                            59.8942006
                        ],
                        [
                            33.1272725,
                            59.8918983
                        ],
                        [
                            33.1454703,
                            59.8920775
                        ],
                        [
                            33.1483169,
                            59.9346856
                        ],
                        [
                            33.1759704,
                            59.9456855
                        ],
                        [
                            33.1459647,
                            59.9696393
                        ],
                        [
                            33.1296102,
                            59.9804944
                        ],
                        [
                            33.1247302,
                            59.9975802
                        ],
                        [
                            33.171497,
                            59.9996136
                        ],
                        [
                            33.1816638,
                            60.0057131
                        ],
                        [
                            33.1723104,
                            60.0144538
                        ],
                        [
                            33.1763771,
                            60.0209571
                        ],
                        [
                            33.1401836,
                            60.0376157
                        ],
                        [
                            33.1320502,
                            60.0654291
                        ],
                        [
                            33.0999234,
                            60.0879468
                        ],
                        [
                            33.0760689,
                            60.1276725
                        ],
                        [
                            33.0524372,
                            60.1400092
                        ],
                        [
                            33.0633232,
                            60.1794821
                        ],
                        [
                            33.0756844,
                            60.1923491
                        ],
                        [
                            33.0838299,
                            60.1956541
                        ],
                        [
                            33.0986197,
                            60.1950537
                        ],
                        [
                            33.1242498,
                            60.2020353
                        ],
                        [
                            33.1283845,
                            60.2023366
                        ],
                        [
                            33.1712444,
                            60.2054057
                        ],
                        [
                            33.1857504,
                            60.2029498
                        ],
                        [
                            33.1995572,
                            60.204549
                        ],
                        [
                            33.2068772,
                            60.2116209
                        ],
                        [
                            33.2178572,
                            60.2108128
                        ],
                        [
                            33.2430707,
                            60.1794821
                        ],
                        [
                            33.2666575,
                            60.1792799
                        ],
                        [
                            33.2878042,
                            60.1539912
                        ],
                        [
                            33.2845509,
                            60.1430605
                        ],
                        [
                            33.305291,
                            60.1469069
                        ],
                        [
                            33.3305044,
                            60.145085
                        ],
                        [
                            33.3317244,
                            60.1398211
                        ],
                        [
                            33.3549045,
                            60.1296958
                        ],
                        [
                            33.3666979,
                            60.1355689
                        ],
                        [
                            33.4126514,
                            60.1224037
                        ],
                        [
                            33.4337982,
                            60.1213908
                        ],
                        [
                            33.4403049,
                            60.1126784
                        ],
                        [
                            33.4565716,
                            60.1211882
                        ],
                        [
                            33.4764984,
                            60.1199726
                        ],
                        [
                            33.4781251,
                            60.130911
                        ],
                        [
                            33.5183852,
                            60.1323287
                        ],
                        [
                            33.5684055,
                            60.1145021
                        ],
                        [
                            33.5891455,
                            60.1134889
                        ],
                        [
                            33.6176123,
                            60.1108545
                        ],
                        [
                            33.6367258,
                            60.1165283
                        ],
                        [
                            33.6375391,
                            60.1339488
                        ],
                        [
                            33.6582792,
                            60.1521697
                        ],
                        [
                            33.6635659,
                            60.1657276
                        ],
                        [
                            33.6798326,
                            60.1774597
                        ],
                        [
                            33.69577,
                            60.16638
                        ],
                        [
                            33.7049224,
                            60.1870747
                        ],
                        [
                            33.6965832,
                            60.2085125
                        ],
                        [
                            33.6770293,
                            60.2240818
                        ],
                        [
                            33.6666772,
                            60.2370744
                        ],
                        [
                            33.6482734,
                            60.2387873
                        ],
                        [
                            33.6517241,
                            60.249063
                        ],
                        [
                            33.6971141,
                            60.2530652
                        ],
                        [
                            33.7342533,
                            60.2563396
                        ],
                        [
                            33.6916947,
                            60.2754509
                        ],
                        [
                            33.6922698,
                            60.2991106
                        ],
                        [
                            33.6709905,
                            60.2992531
                        ],
                        [
                            33.6715505,
                            60.2947523
                        ],
                        [
                            33.6648593,
                            60.2929522
                        ],
                        [
                            33.6626607,
                            60.2881201
                        ],
                        [
                            33.6542488,
                            60.2875989
                        ],
                        [
                            33.6422347,
                            60.2807259
                        ],
                        [
                            33.626677,
                            60.2838925
                        ],
                        [
                            33.6239733,
                            60.2913299
                        ],
                        [
                            33.6111785,
                            60.2986832
                        ],
                        [
                            33.5395765,
                            60.2999655
                        ],
                        [
                            33.5436023,
                            60.3563362
                        ],
                        [
                            33.526924,
                            60.3583274
                        ],
                        [
                            33.526924,
                            60.3688498
                        ],
                        [
                            33.5079451,
                            60.3691342
                        ],
                        [
                            33.5113958,
                            60.3870429
                        ],
                        [
                            33.4929921,
                            60.3886059
                        ],
                        [
                            33.4918419,
                            60.4015332
                        ],
                        [
                            33.4731506,
                            60.3998288
                        ],
                        [
                            33.4757386,
                            60.3896005
                        ],
                        [
                            33.3294828,
                            60.390855
                        ],
                        [
                            33.1966591,
                            60.3906411
                        ],
                        [
                            33.135382,
                            60.3900147
                        ],
                        [
                            33.1345368,
                            60.395652
                        ],
                        [
                            33.1210136,
                            60.3923115
                        ],
                        [
                            33.1100259,
                            60.3977396
                        ],
                        [
                            33.1129841,
                            60.4042103
                        ],
                        [
                            33.1024191,
                            60.4077583
                        ],
                        [
                            33.1108711,
                            60.4209031
                        ],
                        [
                            33.0901637,
                            60.4223633
                        ],
                        [
                            33.043255,
                            60.4313317
                        ],
                        [
                            33.0394516,
                            60.4238235
                        ],
                        [
                            33.0533974,
                            60.4131838
                        ],
                        [
                            33.0512266,
                            60.4111428
                        ],
                        [
                            33.0490422,
                            60.411797
                        ],
                        [
                            33.0456304,
                            60.4120195
                        ],
                        [
                            33.0429053,
                            60.4123056
                        ],
                        [
                            33.0413697,
                            60.4126872
                        ],
                        [
                            33.0382705,
                            60.4154203
                        ],
                        [
                            33.0352798,
                            60.4183167
                        ],
                        [
                            33.0309534,
                            60.4194669
                        ],
                        [
                            33.0203104,
                            60.4194351
                        ],
                        [
                            33.0160929,
                            60.4199512
                        ],
                        [
                            33.0123496,
                            60.4207485
                        ],
                        [
                            33.0096244,
                            60.4219454
                        ],
                        [
                            33.0079155,
                            60.4241563
                        ],
                        [
                            33.0085227,
                            60.4246598
                        ],
                        [
                            33.0094925,
                            60.4257818
                        ],
                        [
                            33.0099615,
                            60.4265646
                        ],
                        [
                            33.0099249,
                            60.4273145
                        ],
                        [
                            33.0093979,
                            60.4286033
                        ],
                        [
                            33.0090106,
                            60.4298554
                        ],
                        [
                            33.0093446,
                            60.430197
                        ],
                        [
                            33.0095128,
                            60.4303236
                        ],
                        [
                            33.008964,
                            60.4316751
                        ],
                        [
                            33.0075927,
                            60.433781
                        ],
                        [
                            33.0062918,
                            60.4348856
                        ],
                        [
                            33.0045976,
                            60.4356917
                        ],
                        [
                            33.0020902,
                            60.4366883
                        ],
                        [
                            33.0005354,
                            60.4373357
                        ],
                        [
                            32.999335,
                            60.4378995
                        ],
                        [
                            32.9979241,
                            60.4387184
                        ],
                        [
                            32.9953114,
                            60.4401168
                        ],
                        [
                            32.992587,
                            60.4410053
                        ],
                        [
                            32.9890474,
                            60.4421843
                        ],
                        [
                            32.9864456,
                            60.4431394
                        ],
                        [
                            32.9849632,
                            60.4440497
                        ],
                        [
                            32.983874,
                            60.4451093
                        ],
                        [
                            32.9826942,
                            60.4468253
                        ],
                        [
                            32.9822404,
                            60.4477206
                        ],
                        [
                            32.9813933,
                            60.4485891
                        ],
                        [
                            32.9803525,
                            60.4495201
                        ],
                        [
                            32.9791908,
                            60.4505825
                        ],
                        [
                            32.9780775,
                            60.4513822
                        ],
                        [
                            32.9773514,
                            60.4518715
                        ],
                        [
                            32.9768431,
                            60.4523251
                        ],
                        [
                            32.9758508,
                            60.4526354
                        ],
                        [
                            32.9745681,
                            60.4529219
                        ],
                        [
                            32.9708167,
                            60.4536738
                        ],
                        [
                            32.9685416,
                            60.4540676
                        ],
                        [
                            32.9680092,
                            60.4541989
                        ],
                        [
                            32.9673771,
                            60.4541923
                        ],
                        [
                            32.9666687,
                            60.4541848
                        ],
                        [
                            32.966328,
                            60.4541177
                        ],
                        [
                            32.9642356,
                            60.4539538
                        ],
                        [
                            32.9628264,
                            60.4537947
                        ],
                        [
                            32.9597732,
                            60.4532651
                        ],
                        [
                            32.9567449,
                            60.4526558
                        ],
                        [
                            32.9544575,
                            60.452161
                        ],
                        [
                            32.9530943,
                            60.4518639
                        ],
                        [
                            32.9513804,
                            60.451744
                        ],
                        [
                            32.9500946,
                            60.4518559
                        ],
                        [
                            32.9488088,
                            60.452117
                        ],
                        [
                            32.9472425,
                            60.4524902
                        ],
                        [
                            32.9448003,
                            60.4532732
                        ],
                        [
                            32.9423935,
                            60.4541535
                        ]
                    ]
                ]
            },
            "properties": {
                "@id": "relation/1128773",
                "addr:country": "RU",
                "addr:region": "Ленинградская область",
                "admin_level": "6",
                "boundary": "administrative",
                "name": "Волховский район",
                "name:en": "Volkhovsky District",
                "name:fi": "Olhavan piiri",
                "official_status": "ru:муниципальный район",
                "population": "94940",
                "population:date": "2013",
                "type": "boundary",
                "website": "https://www.volkhov-raion.ru/",
                "wikidata": "Q7663",
                "wikipedia": "ru:Волховский район"
            },
            "id": "relation/1128773",
            "bbox": [
                31.6726345,
                59.5844956,
                33.7342533,
                60.543389
            ]
        },
        {
            "type": "Feature",
            "geometry": {
                "type": "Point",
                "coordinates": [
                    32.3276803,
                    59.9275868
                ]
            },
            "properties": {
                "@id": "node/34392911",
                "@relations": [
                    {
                        "role": "admin_centre",
                        "rel": 1128773,
                        "reltags": {
                            "addr:country": "RU",
                            "addr:region": "Ленинградская область",
                            "admin_level": "6",
                            "boundary": "administrative",
                            "name": "Волховский район",
                            "name:en": "Volkhovsky District",
                            "name:fi": "Olhavan piiri",
                            "official_status": "ru:муниципальный район",
                            "population": "94940",
                            "population:date": "2013",
                            "type": "boundary",
                            "website": "https://www.volkhov-raion.ru/",
                            "wikidata": "Q7663",
                            "wikipedia": "ru:Волховский район"
                        }
                    }
                ]
            },
            "id": "node/34392911",
            "bbox": [
                32.3276803,
                59.9275868,
                32.3276803,
                59.9275868
            ]
        }
    ]
}